OBJECT_NAME,OBJECT_ID,EPOCH,MEAN_MOTION,ECCENTRICITY,INCLINATION,RA_OF_ASC_NODE,ARG_OF_PERICENTER,MEAN_ANOMALY,EPHEMERIS_TYPE,CLASSIFICATION_TYPE,NORAD_CAT_ID,ELEMENT_SET_NO,REV_AT_EPOCH,BSTAR,MEAN_MOTION_DOT,MEAN_MOTION_DDOT
COSMOS 2058,1990-010A,2026-06-17T11:11:34.158048,15.12016309,.00091362,82.4684,309.0791,359.5575,0.5646,0,U,20465,999,95731,.19714828E-3,.3417E-4,0
SL-14 R/B,1990-010B,2026-06-17T12:07:18.960384,14.83646353,.00190606,82.5015,173.6463,335.2299,24.7999,0,U,20466,999,94328,.3222685E-4,.29E-5,0
SL-14 R/B,1990-018B,2026-06-17T08:22:28.168032,14.82216171,.00174468,82.5210,129.9563,121.2350,239.0577,0,U,20511,999,93734,.35440409E-4,.307E-5,0
HST,1990-037B,2026-06-17T03:26:13.909056,15.30747004,.00018155,28.4720,80.8753,141.8279,218.2446,0,U,20580,999,78856,.17615563E-3,.562E-4,0
SL-16 R/B,1990-046B,2026-06-17T02:08:57.298848,14.15026589,.00133509,70.9999,89.1530,161.9416,198.2184,0,U,20625,999,86245,.84629377E-4,.116E-5,0
COSMOS 2084,1990-055A,2026-06-16T20:41:42.797760,15.06114812,.00055799,62.7899,357.1999,278.3631,81.6837,0,U,20663,999,95125,.13174706E-3,.1734E-4,0
SL-6 R/B(2),1990-055D,2026-06-17T12:21:12.514752,15.04003852,.00407116,62.7823,274.2619,5.1883,354.9630,0,U,20666,999,95320,.99720775E-4,.12E-4,0
SL-8 R/B,1990-078B,2026-06-17T11:07:04.545984,14.92330883,.03508611,82.9016,161.3960,37.5373,324.9789,0,U,20775,999,82416,.57730464E-3,.20481E-3,0
SL-8 R/B,1991-006B,2026-06-17T08:46:58.155168,13.77505871,.00237029,82.9425,95.9007,114.0768,7.0285,0,U,21088,999,77779,.41151656E-4,.57E-6,0
OKEAN-3,1991-039A,2026-06-17T14:29:39.692832,15.05325705,.00140376,82.5158,239.9771,356.5387,3.5740,0,U,21397,999,88006,.16747797E-3,.2429E-4,0
COSMOS 2151,1991-042A,2026-06-17T14:14:15.669888,15.00439235,.00138106,82.4960,347.2891,82.8510,277.4284,0,U,21422,999,87817,.94497072E-4,.1218E-4,0
SL-14 R/B,1991-042B,2026-06-17T08:31:54.934752,14.81902557,.00154123,82.4927,126.7376,274.2345,85.7108,0,U,21423,999,86783,.34583402E-4,.297E-5,0
ERS-1,1991-050A,2026-06-17T12:17:47.024448,14.39517828,.00307159,98.7798,189.2184,265.9400,93.8276,0,U,21574,999,83009,.80897434E-4,.207E-5,0
ARIANE 40 R/B,1991-050F,2026-06-17T14:29:25.346112,14.42957293,.00042703,98.1876,217.0044,120.6372,239.5241,0,U,21610,999,83340,.76778056E-4,.215E-5,0
INTERCOSMOS 25,1991-086A,2026-06-16T22:43:17.116032,12.12195316,.14840212,82.6051,249.9553,262.9134,80.1493,0,U,21819,999,50871,.13921069E-3,.698E-5,0
SL-8 R/B,1992-008B,2026-06-17T11:58:31.831392,13.75977041,.00338609,82.9262,193.5557,213.7960,254.6254,0,U,21876,999,72314,.11886991E-3,.131E-5,0
SL-8 R/B,1992-020B,2026-06-17T03:17:13.500384,13.75548825,.00297323,82.9305,79.8947,22.7202,88.6847,0,U,21938,999,71480,.64058303E-4,.77E-6,0
USA 81,1992-023A,2026-06-17T03:14:35.895552,14.32398154,.00027559,85.0075,74.0375,84.6017,275.5490,0,U,21949,999,10902,.47619914E-4,.149E-5,0
COSMOS 2219,1992-076A,2026-06-17T09:40:04.909440,14.14099164,.00166095,71.0579,169.6209,43.8060,316.4377,0,U,22219,999,73247,.17053718E-3,.278E-5,0
SL-16 R/B,1992-076B,2026-06-17T12:33:18.465696,14.16872412,.00146609,71.0005,338.0734,298.2160,118.0015,0,U,22220,999,73597,.13111185E-3,.215E-5,0
COSMOS 2221,1992-080A,2026-06-17T12:57:52.511904,14.96533739,.00132979,82.5030,183.4264,210.9421,149.1019,0,U,22236,999,79572,.94887123E-4,.1106E-4,0
SL-16 R/B,1992-093B,2026-06-17T09:12:38.604096,14.15461119,.00039428,71.0197,154.9786,188.1315,171.9745,0,U,22285,999,72726,-.12463911E-3,-.291E-5,0
COSMOS 2228,1992-094A,2026-06-17T13:19:46.130592,14.97587593,.00168687,82.5174,141.6901,331.0649,28.9637,0,U,22286,999,79100,.13678854E-3,.1628E-4,0
SL-16 R/B,1993-016B,2026-06-17T00:15:07.280352,14.15314120,.00102055,71.0085,6.5786,183.7871,176.3176,0,U,22566,999,71622,.16148908E-3,.267E-5,0
COSMOS 2242,1993-024A,2026-06-17T12:21:36.587520,14.96904128,.00153386,82.5179,171.2292,335.1626,24.8856,0,U,22626,999,79532,.11163596E-3,.131E-4,0
SL-16 R/B,1993-059B,2026-06-17T10:03:50.296896,14.17248281,.00152099,70.9886,160.8140,53.4989,306.7533,0,U,22803,999,69366,-.19988878E-4,-.88E-6,0
ARIANE 40 R/B,1993-061H,2026-06-17T03:15:13.124448,14.32907923,.00104471,98.4819,234.9936,356.3292,3.7814,0,U,22830,999,70834,.70281018E-4,.149E-5,0
COSMOS 2278,1994-023A,2026-06-17T14:24:45.595872,14.14398277,.00106209,71.0549,326.0597,242.7748,117.2293,0,U,23087,999,65893,.59711048E-4,.67E-6,0
SL-16 R/B,1994-023B,2026-06-17T14:27:02.545920,14.15025572,.00027365,70.9993,221.0600,186.2744,173.8345,0,U,23088,999,66022,.14749221E-3,.238E-5,0
SL-16 R/B,1994-074B,2026-06-17T15:07:43.414176,14.79502618,.00051571,97.6990,195.3329,251.5240,220.8461,0,U,23343,999,70202,.48072103E-4,.31E-5,0
