COSMOS 2058             
1 20465U 90010A   26168.46636757  .00003417  00000+0  19715-3 0  9994
2 20465  82.4684 309.0791 0009136 359.5575   0.5646 15.12016309957312
SL-14 R/B               
1 20466U 90010B   26168.50508056  .00000290  00000+0  32227-4 0  9990
2 20466  82.5015 173.6463 0019060 335.2299  24.7999 14.83646353943289
SL-14 R/B               
1 20511U 90018B   26168.34893713  .00000307  00000+0  35440-4 0  9997
2 20511  82.5210 129.9563 0017446 121.2350 239.0577 14.82216171937342
HST                     
1 20580U 90037B   26168.14321654  .00005620  00000+0  17616-3 0  9999
2 20580  28.4720  80.8753 0001815 141.8279 218.2446 15.30747004788560
SL-16 R/B               
1 20625U 90046B   26168.08955207  .00000116  00000+0  84629-4 0  9993
2 20625  70.9999  89.1530 0013350 161.9416 198.2184 14.15026589862455
COSMOS 2084             
1 20663U 90055A   26167.86230090  .00001734  00000+0  13175-3 0  9990
2 20663  62.7899 357.1999 0005579 278.3631  81.6837 15.06114812951253
SL-6 R/B(2)             
1 20666U 90055D   26168.51472818  .00001200  00000+0  99721-4 0  9992
2 20666  62.7823 274.2619 0040711   5.1883 354.9630 15.04003852953206
SL-8 R/B                
1 20775U 90078B   26168.46324706  .00020481  00000+0  57730-3 0  9999
2 20775  82.9016 161.3960 0350861  37.5373 324.9789 14.92330883824160
SL-8 R/B                
1 21088U 91006B   26168.36595087  .00000057  00000+0  41152-4 0  9999
2 21088  82.9425  95.9007 0023702 114.0768   7.0285 13.77505871777795
OKEAN-3                 
1 21397U 91039A   26168.60393163  .00002429  00000+0  16748-3 0  9993
2 21397  82.5158 239.9771 0014037 356.5387   3.5740 15.05325705880067
COSMOS 2151             
1 21422U 91042A   26168.59323692  .00001218  00000+0  94497-4 0  9997
2 21422  82.4960 347.2891 0013810  82.8510 277.4284 15.00439235878170
SL-14 R/B               
1 21423U 91042B   26168.35549693  .00000297  00000+0  34583-4 0  9999
2 21423  82.4927 126.7376 0015412 274.2345  85.7108 14.81902557867831
ERS-1                   
1 21574U 91050A   26168.51234982  .00000207  00000+0  80897-4 0  9995
2 21574  98.7798 189.2184 0030715 265.9400  93.8276 14.39517828830097
ARIANE 40 R/B           
1 21610U 91050F   26168.60376558  .00000215  00000+0  76778-4 0  9994
2 21610  98.1876 217.0044 0004270 120.6372 239.5241 14.42957293833403
INTERCOSMOS 25          
1 21819U 91086A   26167.94672588  .00000698  00000+0  13921-3 0  9997
2 21819  82.6051 249.9553 1484021 262.9134  80.1493 12.12195316508716
SL-8 R/B                
1 21876U 92008B   26168.49897953  .00000131  00000+0  11887-3 0  9992
2 21876  82.9262 193.5557 0033860 213.7960 254.6254 13.75977041723147
SL-8 R/B                
1 21938U 92020B   26168.13696181  .00000077  00000+0  64058-4 0  9994
2 21938  82.9305  79.8947 0029732  22.7202  88.6847 13.75548825714803
USA 81                  
1 21949U 92023A   26168.13513768  .00000149  00000+0  47620-4 0  9994
2 21949  85.0075  74.0375 0002755  84.6017 275.5490 14.32398154109027
COSMOS 2219             
1 22219U 92076A   26168.40283460  .00000278  00000+0  17054-3 0  9996
2 22219  71.0579 169.6209 0016609  43.8060 316.4377 14.14099164732476
SL-16 R/B               
1 22220U 92076B   26168.52313039  .00000215  00000+0  13111-3 0  9998
2 22220  71.0005 338.0734 0014660 298.2160 118.0015 14.16872412735979
COSMOS 2221             
1 22236U 92080A   26168.54019111  .00001106  00000+0  94887-4 0  9996
2 22236  82.5030 183.4264 0013297 210.9421 149.1019 14.96533739795729
SL-16 R/B               
1 22285U 92093B   26168.38378014 -.00000291  00000+0 -12464-3 0  9992
2 22285  71.0197 154.9786 0003942 188.1315 171.9745 14.15461119727262
COSMOS 2228             
1 22286U 92094A   26168.55539503  .00001628  00000+0  13679-3 0  9997
2 22286  82.5174 141.6901 0016868 331.0649  28.9637 14.97587593791006
SL-16 R/B               
1 22566U 93016B   26168.01050093  .00000267  00000+0  16149-3 0  9999
2 22566  71.0085   6.5786 0010205 183.7871 176.3176 14.15314120716220
COSMOS 2242             
1 22626U 93024A   26168.51500680  .00001310  00000+0  11164-3 0  9994
2 22626  82.5179 171.2292 0015338 335.1626  24.8856 14.96904128795325
SL-16 R/B               
1 22803U 93059B   26168.41933214 -.00000088  00000+0 -19989-4 0  9998
2 22803  70.9886 160.8140 0015209  53.4989 306.7533 14.17248281693665
ARIANE 40 R/B           
1 22830U 93061H   26168.13556857  .00000149  00000+0  70281-4 0  9992
2 22830  98.4819 234.9936 0010447 356.3292   3.7814 14.32907923708343
COSMOS 2278             
1 23087U 94023A   26168.60052773  .00000067  00000+0  59711-4 0  9990
2 23087  71.0549 326.0597 0010620 242.7748 117.2293 14.14398277658935
SL-16 R/B               
1 23088U 94023B   26168.60211280  .00000238  00000+0  14749-3 0  9992
2 23088  70.9993 221.0600 0002736 186.2744 173.8345 14.15025572660220
SL-16 R/B               
1 23343U 94074B   26168.63036359  .00000310  00000+0  48072-4 0  9995
2 23343  97.6990 195.3329 0005157 251.5240 220.8461 14.79502618702023
